{"type":"FeatureCollection","totalFeature":329,"features":[{"properties":{"name":"景德镇","res2_4m_":1,"pinyin":"Jingdezhen"},"geometry":{"type":"Point","coordinates":[117.117942810059,29.1951675415039]},"type":"Feature","id":"points.1"},{"properties":{"name":"白银","res2_4m_":2,"pinyin":"Baiyin"},"geometry":{"type":"Point","coordinates":[104.183776855469,36.5394172668457]},"type":"Feature","id":"points.2"},{"properties":{"name":"北京","res2_4m_":3,"pinyin":"Beijing"},"geometry":{"type":"Point","coordinates":[116.38094329834,39.9236145019531]},"type":"Feature","id":"points.3"},{"properties":{"name":"天津","res2_4m_":4,"pinyin":"Tianjin"},"geometry":{"type":"Point","coordinates":[117.203498840332,39.1311187744141]},"type":"Feature","id":"points.4"},{"properties":{"name":"唐山","res2_4m_":5,"pinyin":"Tangshan"},"geometry":{"type":"Point","coordinates":[118.201728820801,39.6253395080566]},"type":"Feature","id":"points.5"},{"properties":{"name":"秦皇岛","res2_4m_":6,"pinyin":"Qinhuangdao"},"geometry":{"type":"Point","coordinates":[119.598297119141,39.9243087768555]},"type":"Feature","id":"points.6"},{"properties":{"name":"张家口","res2_4m_":7,"pinyin":"Zhangjiakou"},"geometry":{"type":"Point","coordinates":[114.878776550293,40.817440032959]},"type":"Feature","id":"points.7"},{"properties":{"name":"承德","res2_4m_":8,"pinyin":"Chengde"},"geometry":{"type":"Point","coordinates":[117.922340393066,40.967601776123]},"type":"Feature","id":"points.8"},{"properties":{"name":"廊坊","res2_4m_":9,"pinyin":"Langfang"},"geometry":{"type":"Point","coordinates":[116.68985748291,39.5151100158691]},"type":"Feature","id":"points.9"},{"properties":{"name":"石家庄","res2_4m_":10,"pinyin":"Shijiazhuang"},"geometry":{"type":"Point","coordinates":[114.489776611328,38.0451278686523]},"type":"Feature","id":"points.10"},{"properties":{"name":"邯郸","res2_4m_":11,"pinyin":"Handan"},"geometry":{"type":"Point","coordinates":[114.472953796387,36.6015167236328]},"type":"Feature","id":"points.11"},{"properties":{"name":"邢台","res2_4m_":12,"pinyin":"Xingtai"},"geometry":{"type":"Point","coordinates":[114.495086669922,37.0655899047852]},"type":"Feature","id":"points.12"},{"properties":{"name":"保定","res2_4m_":13,"pinyin":"Baoding"},"geometry":{"type":"Point","coordinates":[115.500183105469,38.8570709228516]},"type":"Feature","id":"points.13"},{"properties":{"name":"沧州","res2_4m_":14,"pinyin":"Cangzhou"},"geometry":{"type":"Point","coordinates":[116.860771179199,38.3088417053223]},"type":"Feature","id":"points.14"},{"properties":{"name":"衡水","res2_4m_":15,"pinyin":"Hengshui"},"geometry":{"type":"Point","coordinates":[115.708190917969,37.7278213500977]},"type":"Feature","id":"points.15"},{"properties":{"name":"太原","res2_4m_":16,"pinyin":"Taiyuan"},"geometry":{"type":"Point","coordinates":[112.569351196289,37.8711128234863]},"type":"Feature","id":"points.16"},{"properties":{"name":"大同","res2_4m_":17,"pinyin":"Datong"},"geometry":{"type":"Point","coordinates":[113.296333312988,40.0971488952637]},"type":"Feature","id":"points.17"},{"properties":{"name":"阳泉","res2_4m_":18,"pinyin":"Yangquan"},"geometry":{"type":"Point","coordinates":[113.574256896973,37.8606567382813]},"type":"Feature","id":"points.18"},{"properties":{"name":"晋城","res2_4m_":19,"pinyin":"Jincheng"},"geometry":{"type":"Point","coordinates":[112.842720031738,35.5065116882324]},"type":"Feature","id":"points.19"},{"properties":{"name":"朔州","res2_4m_":20,"pinyin":"Shuozhou"},"geometry":{"type":"Point","coordinates":[112.423271179199,39.3131332397461]},"type":"Feature","id":"points.20"},{"properties":{"name":"忻州","res2_4m_":21,"pinyin":"Xinzhou"},"geometry":{"type":"Point","coordinates":[112.731552124023,38.3992080688477]},"type":"Feature","id":"points.21"},{"properties":{"name":"离石","res2_4m_":22,"pinyin":"Lishi"},"geometry":{"type":"Point","coordinates":[111.134811401367,37.5120429992676]},"type":"Feature","id":"points.22"},{"properties":{"name":"榆次","res2_4m_":23,"pinyin":"Yuci"},"geometry":{"type":"Point","coordinates":[112.745361328125,37.676139831543]},"type":"Feature","id":"points.23"},{"properties":{"name":"临汾","res2_4m_":24,"pinyin":"Linfen"},"geometry":{"type":"Point","coordinates":[111.514167785645,36.0828247070313]},"type":"Feature","id":"points.24"},{"properties":{"name":"运城","res2_4m_":25,"pinyin":"Yuncheng"},"geometry":{"type":"Point","coordinates":[110.991149902344,35.013916015625]},"type":"Feature","id":"points.25"},{"properties":{"name":"长治","res2_4m_":26,"pinyin":"Changzhi"},"geometry":{"type":"Point","coordinates":[113.105567932129,36.1819114685059]},"type":"Feature","id":"points.26"},{"properties":{"name":"呼和浩特","res2_4m_":27,"pinyin":"Huhehaote"},"geometry":{"type":"Point","coordinates":[111.663299560547,40.8209419250488]},"type":"Feature","id":"points.27"},{"properties":{"name":"包头","res2_4m_":28,"pinyin":"Baotou"},"geometry":{"type":"Point","coordinates":[109.851707458496,40.6664237976074]},"type":"Feature","id":"points.28"},{"properties":{"name":"乌海","res2_4m_":29,"pinyin":"Wuhai"},"geometry":{"type":"Point","coordinates":[106.814872741699,39.674201965332]},"type":"Feature","id":"points.29"},{"properties":{"name":"集宁","res2_4m_":30,"pinyin":"Jining"},"geometry":{"type":"Point","coordinates":[113.098518371582,41.0311660766602]},"type":"Feature","id":"points.30"},{"properties":{"name":"东胜","res2_4m_":31,"pinyin":"Dongsheng"},"geometry":{"type":"Point","coordinates":[109.997581481934,39.8184280395508]},"type":"Feature","id":"points.31"},{"properties":{"name":"临河","res2_4m_":32,"pinyin":"Linhe"},"geometry":{"type":"Point","coordinates":[107.394569396973,40.7623405456543]},"type":"Feature","id":"points.32"},{"properties":{"name":"阿拉善左旗","res2_4m_":33,"pinyin":"Alxa Zuoqi"},"geometry":{"type":"Point","coordinates":[105.665458679199,38.8402404785156]},"type":"Feature","id":"points.33"},{"properties":{"name":"赤峰","res2_4m_":34,"pinyin":"Chifeng"},"geometry":{"type":"Point","coordinates":[118.949821472168,42.2679824829102]},"type":"Feature","id":"points.34"},{"properties":{"name":"通辽","res2_4m_":35,"pinyin":"Tongliao"},"geometry":{"type":"Point","coordinates":[122.260330200195,43.6115608215332]},"type":"Feature","id":"points.35"},{"properties":{"name":"锡林浩特","res2_4m_":36,"pinyin":"Xilinhot"},"geometry":{"type":"Point","coordinates":[116.066268920898,43.9442901611328]},"type":"Feature","id":"points.36"},{"properties":{"name":"海拉尔","res2_4m_":37,"pinyin":"Hailar"},"geometry":{"type":"Point","coordinates":[119.730560302734,49.2115287780762]},"type":"Feature","id":"points.37"},{"properties":{"name":"乌兰浩特","res2_4m_":38,"pinyin":"Wulanhaote"},"geometry":{"type":"Point","coordinates":[122.068458557129,46.0682258605957]},"type":"Feature","id":"points.38"},{"properties":{"name":"加格达奇","res2_4m_":39,"pinyin":"Jiagedaqi"},"geometry":{"type":"Point","coordinates":[124.131561279297,50.4269638061523]},"type":"Feature","id":"points.39"},{"properties":{"name":"沈阳","res2_4m_":40,"pinyin":"Shenyang"},"geometry":{"type":"Point","coordinates":[123.411682128906,41.7966156005859]},"type":"Feature","id":"points.40"},{"properties":{"name":"大连","res2_4m_":41,"pinyin":"Dalian"},"geometry":{"type":"Point","coordinates":[121.60083770752,38.9178047180176]},"type":"Feature","id":"points.41"},{"properties":{"name":"鞍山","res2_4m_":42,"pinyin":"Anshan"},"geometry":{"type":"Point","coordinates":[122.984382629395,41.1152572631836]},"type":"Feature","id":"points.42"},{"properties":{"name":"抚顺","res2_4m_":43,"pinyin":"Fushun"},"geometry":{"type":"Point","coordinates":[123.929557800293,41.8478660583496]},"type":"Feature","id":"points.43"},{"properties":{"name":"本溪","res2_4m_":44,"pinyin":"Benxi"},"geometry":{"type":"Point","coordinates":[123.764503479004,41.2875862121582]},"type":"Feature","id":"points.44"},{"properties":{"name":"锦州","res2_4m_":45,"pinyin":"Jinzhou"},"geometry":{"type":"Point","coordinates":[121.133369445801,41.1111259460449]},"type":"Feature","id":"points.45"},{"properties":{"name":"营口","res2_4m_":46,"pinyin":"Yingkou"},"geometry":{"type":"Point","coordinates":[122.224151611328,40.6683502197266]},"type":"Feature","id":"points.46"},{"properties":{"name":"阜新","res2_4m_":47,"pinyin":"Fuxin"},"geometry":{"type":"Point","coordinates":[121.648803710938,42.0079536437988]},"type":"Feature","id":"points.47"},{"properties":{"name":"盘锦","res2_4m_":48,"pinyin":"Panjin"},"geometry":{"type":"Point","coordinates":[122.047630310059,41.1884765625]},"type":"Feature","id":"points.48"},{"properties":{"name":"铁岭","res2_4m_":49,"pinyin":"Tieling"},"geometry":{"type":"Point","coordinates":[123.844429016113,42.295581817627]},"type":"Feature","id":"points.49"},{"properties":{"name":"朝阳","res2_4m_":50,"pinyin":"Chaoyang"},"geometry":{"type":"Point","coordinates":[120.451469421387,41.5778579711914]},"type":"Feature","id":"points.50"},{"properties":{"name":"锦西","res2_4m_":51,"pinyin":"Jinxi"},"geometry":{"type":"Point","coordinates":[120.847480773926,40.7533416748047]},"type":"Feature","id":"points.51"},{"properties":{"name":"丹东","res2_4m_":52,"pinyin":"Dandong"},"geometry":{"type":"Point","coordinates":[124.381462097168,40.135181427002]},"type":"Feature","id":"points.52"},{"properties":{"name":"长春","res2_4m_":53,"pinyin":"Changchun"},"geometry":{"type":"Point","coordinates":[125.3154296875,43.8925628662109]},"type":"Feature","id":"points.53"},{"properties":{"name":"吉林","res2_4m_":54,"pinyin":"Jilin"},"geometry":{"type":"Point","coordinates":[126.566818237305,43.8866767883301]},"type":"Feature","id":"points.54"},{"properties":{"name":"四平","res2_4m_":55,"pinyin":"Siping"},"geometry":{"type":"Point","coordinates":[124.377449035645,43.1656074523926]},"type":"Feature","id":"points.55"},{"properties":{"name":"辽源","res2_4m_":56,"pinyin":"Liaoyuan"},"geometry":{"type":"Point","coordinates":[125.137283325195,42.9085922241211]},"type":"Feature","id":"points.56"},{"properties":{"name":"浑江","res2_4m_":57,"pinyin":"Hunjiang"},"geometry":{"type":"Point","coordinates":[126.421607971191,41.9303321838379]},"type":"Feature","id":"points.57"},{"properties":{"name":"白城","res2_4m_":58,"pinyin":"Baicheng"},"geometry":{"type":"Point","coordinates":[122.839576721191,45.6164169311523]},"type":"Feature","id":"points.58"},{"properties":{"name":"延吉","res2_4m_":59,"pinyin":"Yanji"},"geometry":{"type":"Point","coordinates":[129.509429931641,42.9072303771973]},"type":"Feature","id":"points.59"},{"properties":{"name":"通化","res2_4m_":60,"pinyin":"Tonghua"},"geometry":{"type":"Point","coordinates":[125.923126220703,41.7232933044434]},"type":"Feature","id":"points.60"},{"properties":{"name":"哈尔滨","res2_4m_":61,"pinyin":"Haerbin"},"geometry":{"type":"Point","coordinates":[126.643341064453,45.7414932250977]},"type":"Feature","id":"points.61"},{"properties":{"name":"鸡西","res2_4m_":62,"pinyin":"Jixi"},"geometry":{"type":"Point","coordinates":[130.94775390625,45.297004699707]},"type":"Feature","id":"points.62"},{"properties":{"name":"鹤岗","res2_4m_":63,"pinyin":"Hegang"},"geometry":{"type":"Point","coordinates":[130.27619934082,47.3372840881348]},"type":"Feature","id":"points.63"},{"properties":{"name":"双鸭山","res2_4m_":64,"pinyin":"Shuangyashan"},"geometry":{"type":"Point","coordinates":[131.152160644531,46.6376914978027]},"type":"Feature","id":"points.64"},{"properties":{"name":"伊春","res2_4m_":65,"pinyin":"Yichun"},"geometry":{"type":"Point","coordinates":[128.904312133789,47.7236442565918]},"type":"Feature","id":"points.65"},{"properties":{"name":"佳木斯","res2_4m_":66,"pinyin":"Jiamusi"},"geometry":{"type":"Point","coordinates":[130.362319946289,46.813663482666]},"type":"Feature","id":"points.66"},{"properties":{"name":"七台河","res2_4m_":67,"pinyin":"Qitaihe"},"geometry":{"type":"Point","coordinates":[130.875396728516,45.8092727661133]},"type":"Feature","id":"points.67"},{"properties":{"name":"牡丹江","res2_4m_":68,"pinyin":"Mudanjiang"},"geometry":{"type":"Point","coordinates":[129.598495483398,44.5839233398438]},"type":"Feature","id":"points.68"},{"properties":{"name":"绥化","res2_4m_":69,"pinyin":"Suihua"},"geometry":{"type":"Point","coordinates":[126.983489990234,46.6370124816895]},"type":"Feature","id":"points.69"},{"properties":{"name":"齐齐哈尔","res2_4m_":70,"pinyin":"Qiqiha'er"},"geometry":{"type":"Point","coordinates":[123.959266662598,47.3413696289063]},"type":"Feature","id":"points.70"},{"properties":{"name":"大庆","res2_4m_":71,"pinyin":"Daqing"},"geometry":{"type":"Point","coordinates":[125.024856567383,46.5954513549805]},"type":"Feature","id":"points.71"},{"properties":{"name":"黑河","res2_4m_":72,"pinyin":"Heihe"},"geometry":{"type":"Point","coordinates":[127.486938476563,50.2444877624512]},"type":"Feature","id":"points.72"},{"properties":{"name":"上海","res2_4m_":73,"pinyin":"Shanghai"},"geometry":{"type":"Point","coordinates":[121.469268798828,31.2381763458252]},"type":"Feature","id":"points.73"},{"properties":{"name":"南京","res2_4m_":74,"pinyin":"Nanjing"},"geometry":{"type":"Point","coordinates":[118.77278137207,32.0476150512695]},"type":"Feature","id":"points.74"},{"properties":{"name":"无锡","res2_4m_":75,"pinyin":"Wuxi"},"geometry":{"type":"Point","coordinates":[120.299133300781,31.5772304534912]},"type":"Feature","id":"points.75"},{"properties":{"name":"徐州","res2_4m_":76,"pinyin":"Xuzhou"},"geometry":{"type":"Point","coordinates":[117.185607910156,34.2675285339355]},"type":"Feature","id":"points.76"},{"properties":{"name":"常州","res2_4m_":77,"pinyin":"Changzhou"},"geometry":{"type":"Point","coordinates":[119.950286865234,31.7839336395264]},"type":"Feature","id":"points.77"},{"properties":{"name":"苏州","res2_4m_":78,"pinyin":"Suzhou"},"geometry":{"type":"Point","coordinates":[120.618728637695,31.3164520263672]},"type":"Feature","id":"points.78"},{"properties":{"name":"南通","res2_4m_":79,"pinyin":"Nantong"},"geometry":{"type":"Point","coordinates":[120.855567932129,32.0150680541992]},"type":"Feature","id":"points.79"},{"properties":{"name":"连云港","res2_4m_":80,"pinyin":"Lianyungang"},"geometry":{"type":"Point","coordinates":[119.166801452637,34.6051788330078]},"type":"Feature","id":"points.80"},{"properties":{"name":"淮阴","res2_4m_":81,"pinyin":"Huaiyin"},"geometry":{"type":"Point","coordinates":[119.014038085938,33.5872840881348]},"type":"Feature","id":"points.81"},{"properties":{"name":"盐城","res2_4m_":82,"pinyin":"Yancheng"},"geometry":{"type":"Point","coordinates":[120.135177612305,33.3898277282715]},"type":"Feature","id":"points.82"},{"properties":{"name":"扬州","res2_4m_":83,"pinyin":"Yangzhou"},"geometry":{"type":"Point","coordinates":[119.436836242676,32.3918876647949]},"type":"Feature","id":"points.83"},{"properties":{"name":"镇江","res2_4m_":84,"pinyin":"Zhenjiang"},"geometry":{"type":"Point","coordinates":[119.444297790527,32.2058982849121]},"type":"Feature","id":"points.84"},{"properties":{"name":"杭州","res2_4m_":85,"pinyin":"Hangzhou"},"geometry":{"type":"Point","coordinates":[120.159248352051,30.2659950256348]},"type":"Feature","id":"points.85"},{"properties":{"name":"宁波","res2_4m_":86,"pinyin":"Ningbo"},"geometry":{"type":"Point","coordinates":[121.541282653809,29.8706684112549]},"type":"Feature","id":"points.86"},{"properties":{"name":"温州","res2_4m_":87,"pinyin":"Wenzhou"},"geometry":{"type":"Point","coordinates":[120.650291442871,28.0164756774902]},"type":"Feature","id":"points.87"},{"properties":{"name":"嘉兴","res2_4m_":88,"pinyin":"Jiaxing"},"geometry":{"type":"Point","coordinates":[120.753631591797,30.7711143493652]},"type":"Feature","id":"points.88"},{"properties":{"name":"湖州","res2_4m_":89,"pinyin":"Huzhou"},"geometry":{"type":"Point","coordinates":[120.097129821777,30.866039276123]},"type":"Feature","id":"points.89"},{"properties":{"name":"绍兴","res2_4m_":90,"pinyin":"Shaoxing"},"geometry":{"type":"Point","coordinates":[120.573928833008,30.0109310150146]},"type":"Feature","id":"points.90"},{"properties":{"name":"金华","res2_4m_":91,"pinyin":"Jinhua"},"geometry":{"type":"Point","coordinates":[119.652206420898,29.1108169555664]},"type":"Feature","id":"points.91"},{"properties":{"name":"衢州","res2_4m_":92,"pinyin":"Quzhou"},"geometry":{"type":"Point","coordinates":[118.869178771973,28.9584445953369]},"type":"Feature","id":"points.92"},{"properties":{"name":"舟山","res2_4m_":93,"pinyin":"Zhoushan"},"geometry":{"type":"Point","coordinates":[122.101608276367,30.0200424194336]},"type":"Feature","id":"points.93"},{"properties":{"name":"丽水","res2_4m_":94,"pinyin":"Lishui"},"geometry":{"type":"Point","coordinates":[119.916557312012,28.4488372802734]},"type":"Feature","id":"points.94"},{"properties":{"name":"临海","res2_4m_":95,"pinyin":"Linhai"},"geometry":{"type":"Point","coordinates":[121.118446350098,28.8488922119141]},"type":"Feature","id":"points.95"},{"properties":{"name":"合肥","res2_4m_":96,"pinyin":"Hefei"},"geometry":{"type":"Point","coordinates":[117.275703430176,31.8632545471191]},"type":"Feature","id":"points.96"},{"properties":{"name":"芜湖","res2_4m_":97,"pinyin":"Wuhu"},"geometry":{"type":"Point","coordinates":[118.359832763672,31.3344955444336]},"type":"Feature","id":"points.97"},{"properties":{"name":"蚌埠","res2_4m_":98,"pinyin":"Bangbu"},"geometry":{"type":"Point","coordinates":[117.361381530762,32.9392433166504]},"type":"Feature","id":"points.98"},{"properties":{"name":"淮南","res2_4m_":99,"pinyin":"Huainan"},"geometry":{"type":"Point","coordinates":[117.020729064941,32.6166954040527]},"type":"Feature","id":"points.99"},{"properties":{"name":"马鞍山","res2_4m_":100,"pinyin":"Ma'anshan"},"geometry":{"type":"Point","coordinates":[118.480712890625,31.7249240875244]},"type":"Feature","id":"points.100"},{"properties":{"name":"淮北","res2_4m_":101,"pinyin":"Huaibei"},"geometry":{"type":"Point","coordinates":[116.787498474121,33.9704895019531]},"type":"Feature","id":"points.101"},{"properties":{"name":"铜陵","res2_4m_":102,"pinyin":"Tongling"},"geometry":{"type":"Point","coordinates":[117.813179016113,30.9252471923828]},"type":"Feature","id":"points.102"},{"properties":{"name":"安庆","res2_4m_":103,"pinyin":"Anqing"},"geometry":{"type":"Point","coordinates":[117.03443145752,30.5126457214355]},"type":"Feature","id":"points.103"},{"properties":{"name":"黄山","res2_4m_":104,"pinyin":"Huangshan"},"geometry":{"type":"Point","coordinates":[118.309066772461,29.7208442687988]},"type":"Feature","id":"points.104"},{"properties":{"name":"阜阳","res2_4m_":105,"pinyin":"Fuyang"},"geometry":{"type":"Point","coordinates":[115.809730529785,32.9022064208984]},"type":"Feature","id":"points.105"},{"properties":{"name":"宿州","res2_4m_":106,"pinyin":"Suzhou"},"geometry":{"type":"Point","coordinates":[116.970153808594,33.6401329040527]},"type":"Feature","id":"points.106"},{"properties":{"name":"滁州","res2_4m_":107,"pinyin":"Chuzhou"},"geometry":{"type":"Point","coordinates":[118.301162719727,32.3165321350098]},"type":"Feature","id":"points.107"},{"properties":{"name":"六安","res2_4m_":108,"pinyin":"Lu'an"},"geometry":{"type":"Point","coordinates":[116.492790222168,31.7535228729248]},"type":"Feature","id":"points.108"},{"properties":{"name":"宣州","res2_4m_":109,"pinyin":"Xuanzhou"},"geometry":{"type":"Point","coordinates":[118.741493225098,30.9508590698242]},"type":"Feature","id":"points.109"},{"properties":{"name":"巢湖","res2_4m_":110,"pinyin":"Chaohu"},"geometry":{"type":"Point","coordinates":[117.864151000977,31.6038761138916]},"type":"Feature","id":"points.110"},{"properties":{"name":"贵池","res2_4m_":111,"pinyin":"Guichi"},"geometry":{"type":"Point","coordinates":[117.477333068848,30.6568660736084]},"type":"Feature","id":"points.111"},{"properties":{"name":"福州","res2_4m_":112,"pinyin":"Fuzhou"},"geometry":{"type":"Point","coordinates":[119.297813415527,26.0785903930664]},"type":"Feature","id":"points.112"},{"properties":{"name":"厦门","res2_4m_":113,"pinyin":"Xiamen"},"geometry":{"type":"Point","coordinates":[118.087516784668,24.4574356079102]},"type":"Feature","id":"points.113"},{"properties":{"name":"莆田","res2_4m_":114,"pinyin":"Putian"},"geometry":{"type":"Point","coordinates":[119.010322570801,25.4381370544434]},"type":"Feature","id":"points.114"},{"properties":{"name":"三明","res2_4m_":115,"pinyin":"Sanming"},"geometry":{"type":"Point","coordinates":[117.601226806641,26.2230129241943]},"type":"Feature","id":"points.115"},{"properties":{"name":"泉州","res2_4m_":116,"pinyin":"Quanzhou"},"geometry":{"type":"Point","coordinates":[118.589637756348,24.9159183502197]},"type":"Feature","id":"points.116"},{"properties":{"name":"漳州","res2_4m_":117,"pinyin":"Zhangzhou Zhi"},"geometry":{"type":"Point","coordinates":[117.653091430664,24.5181636810303]},"type":"Feature","id":"points.117"},{"properties":{"name":"南平","res2_4m_":118,"pinyin":"Nanping"},"geometry":{"type":"Point","coordinates":[118.169120788574,26.6448421478271]},"type":"Feature","id":"points.118"},{"properties":{"name":"宁德","res2_4m_":119,"pinyin":"Ningde"},"geometry":{"type":"Point","coordinates":[119.51831817627,26.6664772033691]},"type":"Feature","id":"points.119"},{"properties":{"name":"龙岩","res2_4m_":120,"pinyin":"Longyan"},"geometry":{"type":"Point","coordinates":[117.030387878418,25.1097030639648]},"type":"Feature","id":"points.120"},{"properties":{"name":"赣州","res2_4m_":121,"pinyin":"Ganzhou"},"geometry":{"type":"Point","coordinates":[114.93367767334,25.8528823852539]},"type":"Feature","id":"points.121"},{"properties":{"name":"南昌","res2_4m_":122,"pinyin":"Nanchang"},"geometry":{"type":"Point","coordinates":[115.899917602539,28.6759910583496]},"type":"Feature","id":"points.122"},{"properties":{"name":"萍乡","res2_4m_":123,"pinyin":"Pingxiang"},"geometry":{"type":"Point","coordinates":[113.841423034668,27.6329898834229]},"type":"Feature","id":"points.123"},{"properties":{"name":"九江","res2_4m_":124,"pinyin":"Jiujiang"},"geometry":{"type":"Point","coordinates":[115.984580993652,29.7232112884521]},"type":"Feature","id":"points.124"},{"properties":{"name":"新余","res2_4m_":125,"pinyin":"Xinyu"},"geometry":{"type":"Point","coordinates":[114.929382324219,27.806547164917]},"type":"Feature","id":"points.125"},{"properties":{"name":"鹰潭","res2_4m_":126,"pinyin":"Yingtan"},"geometry":{"type":"Point","coordinates":[117.030281066895,28.2455863952637]},"type":"Feature","id":"points.126"},{"properties":{"name":"宜春","res2_4m_":127,"pinyin":"Yichun"},"geometry":{"type":"Point","coordinates":[114.374610900879,27.7955741882324]},"type":"Feature","id":"points.127"},{"properties":{"name":"上饶","res2_4m_":128,"pinyin":"Shangrao"},"geometry":{"type":"Point","coordinates":[117.963401794434,28.4532661437988]},"type":"Feature","id":"points.128"},{"properties":{"name":"吉安","res2_4m_":129,"pinyin":"Ji'an"},"geometry":{"type":"Point","coordinates":[114.970428466797,27.1062088012695]},"type":"Feature","id":"points.129"},{"properties":{"name":"临川","res2_4m_":130,"pinyin":"Linchuan"},"geometry":{"type":"Point","coordinates":[116.301048278809,27.9348316192627]},"type":"Feature","id":"points.130"},{"properties":{"name":"济南","res2_4m_":131,"pinyin":"Jinan"},"geometry":{"type":"Point","coordinates":[117.005599975586,36.6670722961426]},"type":"Feature","id":"points.131"},{"properties":{"name":"青岛","res2_4m_":132,"pinyin":"Qingdao"},"geometry":{"type":"Point","coordinates":[120.358169555664,36.133861541748]},"type":"Feature","id":"points.132"},{"properties":{"name":"淄博","res2_4m_":133,"pinyin":"Zibo"},"geometry":{"type":"Point","coordinates":[118.056053161621,36.7935791015625]},"type":"Feature","id":"points.133"},{"properties":{"name":"枣庄","res2_4m_":134,"pinyin":"Zaozhuang"},"geometry":{"type":"Point","coordinates":[117.556282043457,34.8726463317871]},"type":"Feature","id":"points.134"},{"properties":{"name":"东营","res2_4m_":135,"pinyin":"Dongying"},"geometry":{"type":"Point","coordinates":[118.495956420898,37.4619140625]},"type":"Feature","id":"points.135"},{"properties":{"name":"烟台","res2_4m_":136,"pinyin":"Yantai"},"geometry":{"type":"Point","coordinates":[121.379936218262,37.5356140136719]},"type":"Feature","id":"points.136"},{"properties":{"name":"潍坊","res2_4m_":137,"pinyin":"Weifang"},"geometry":{"type":"Point","coordinates":[119.10684967041,36.7040863037109]},"type":"Feature","id":"points.137"},{"properties":{"name":"济宁","res2_4m_":138,"pinyin":"Jining"},"geometry":{"type":"Point","coordinates":[116.576560974121,35.4092407226563]},"type":"Feature","id":"points.138"},{"properties":{"name":"泰安","res2_4m_":139,"pinyin":"Tai'an"},"geometry":{"type":"Point","coordinates":[117.12410736084,36.1871109008789]},"type":"Feature","id":"points.139"},{"properties":{"name":"威海","res2_4m_":140,"pinyin":"Weihai"},"geometry":{"type":"Point","coordinates":[122.111686706543,37.5007629394531]},"type":"Feature","id":"points.140"},{"properties":{"name":"日照","res2_4m_":141,"pinyin":"Rizhao"},"geometry":{"type":"Point","coordinates":[119.451553344727,35.427562713623]},"type":"Feature","id":"points.141"},{"properties":{"name":"滨州","res2_4m_":142,"pinyin":"Binzhou"},"geometry":{"type":"Point","coordinates":[118.021766662598,37.3678131103516]},"type":"Feature","id":"points.142"},{"properties":{"name":"德州","res2_4m_":143,"pinyin":"Dezhou"},"geometry":{"type":"Point","coordinates":[116.287872314453,37.4536933898926]},"type":"Feature","id":"points.143"},{"properties":{"name":"聊城","res2_4m_":144,"pinyin":"Liaocheng"},"geometry":{"type":"Point","coordinates":[115.988426208496,36.4494323730469]},"type":"Feature","id":"points.144"},{"properties":{"name":"临沂","res2_4m_":145,"pinyin":"Linyi"},"geometry":{"type":"Point","coordinates":[118.337959289551,35.069450378418]},"type":"Feature","id":"points.145"},{"properties":{"name":"菏泽","res2_4m_":146,"pinyin":"Heze"},"geometry":{"type":"Point","coordinates":[115.445762634277,35.2485389709473]},"type":"Feature","id":"points.146"},{"properties":{"name":"郑州","res2_4m_":147,"pinyin":"Zhengzhou"},"geometry":{"type":"Point","coordinates":[113.650047302246,34.7570343017578]},"type":"Feature","id":"points.147"},{"properties":{"name":"开封","res2_4m_":148,"pinyin":"Kaifeng"},"geometry":{"type":"Point","coordinates":[114.346168518066,34.7851943969727]},"type":"Feature","id":"points.148"},{"properties":{"name":"洛阳","res2_4m_":149,"pinyin":"Luoyang"},"geometry":{"type":"Point","coordinates":[112.424797058105,34.668041229248]},"type":"Feature","id":"points.149"},{"properties":{"name":"平顶山","res2_4m_":150,"pinyin":"Pingdingshan"},"geometry":{"type":"Point","coordinates":[113.300193786621,33.7436294555664]},"type":"Feature","id":"points.150"},{"properties":{"name":"安阳","res2_4m_":151,"pinyin":"Anyang"},"geometry":{"type":"Point","coordinates":[114.350051879883,36.096851348877]},"type":"Feature","id":"points.151"},{"properties":{"name":"鹤壁","res2_4m_":152,"pinyin":"Hebi"},"geometry":{"type":"Point","coordinates":[114.154670715332,35.9400825500488]},"type":"Feature","id":"points.152"},{"properties":{"name":"新乡","res2_4m_":153,"pinyin":"Xinxiang"},"geometry":{"type":"Point","coordinates":[113.868553161621,35.3074684143066]},"type":"Feature","id":"points.153"},{"properties":{"name":"焦作","res2_4m_":154,"pinyin":"Jiaozuo"},"geometry":{"type":"Point","coordinates":[113.221786499023,35.2473564147949]},"type":"Feature","id":"points.154"},{"properties":{"name":"濮阳","res2_4m_":155,"pinyin":"Puyang"},"geometry":{"type":"Point","coordinates":[115.014953613281,35.7018966674805]},"type":"Feature","id":"points.155"},{"properties":{"name":"许昌","res2_4m_":156,"pinyin":"Xuchang"},"geometry":{"type":"Point","coordinates":[113.821586608887,34.0268592834473]},"type":"Feature","id":"points.156"},{"properties":{"name":"漯河","res2_4m_":157,"pinyin":"Luohe"},"geometry":{"type":"Point","coordinates":[114.041091918945,33.572509765625]},"type":"Feature","id":"points.157"},{"properties":{"name":"三门峡","res2_4m_":158,"pinyin":"Sanmenxia"},"geometry":{"type":"Point","coordinates":[111.195259094238,34.7807693481445]},"type":"Feature","id":"points.158"},{"properties":{"name":"商丘","res2_4m_":159,"pinyin":"Shangqiu"},"geometry":{"type":"Point","coordinates":[115.647186279297,34.4435844421387]},"type":"Feature","id":"points.159"},{"properties":{"name":"周口","res2_4m_":160,"pinyin":"Zhoukou"},"geometry":{"type":"Point","coordinates":[114.637252807617,33.6280403137207]},"type":"Feature","id":"points.160"},{"properties":{"name":"驻马店","res2_4m_":161,"pinyin":"Zhumadian"},"geometry":{"type":"Point","coordinates":[114.035690307617,32.9790420532227]},"type":"Feature","id":"points.161"},{"properties":{"name":"南阳","res2_4m_":162,"pinyin":"Nanyang"},"geometry":{"type":"Point","coordinates":[112.53751373291,32.9990196228027]},"type":"Feature","id":"points.162"},{"properties":{"name":"信阳","res2_4m_":163,"pinyin":"Xinyang"},"geometry":{"type":"Point","coordinates":[114.067718505859,32.1306304931641]},"type":"Feature","id":"points.163"},{"properties":{"name":"武汉","res2_4m_":164,"pinyin":"Wuhan"},"geometry":{"type":"Point","coordinates":[114.291938781738,30.5675144195557]},"type":"Feature","id":"points.164"},{"properties":{"name":"黄石","res2_4m_":165,"pinyin":"Huangshi"},"geometry":{"type":"Point","coordinates":[115.074989318848,30.2137985229492]},"type":"Feature","id":"points.165"},{"properties":{"name":"十堰","res2_4m_":166,"pinyin":"Shiyan"},"geometry":{"type":"Point","coordinates":[110.78279876709,32.6521301269531]},"type":"Feature","id":"points.166"},{"properties":{"name":"沙市","res2_4m_":167,"pinyin":"Shashi"},"geometry":{"type":"Point","coordinates":[112.247787475586,30.3173351287842]},"type":"Feature","id":"points.167"},{"properties":{"name":"宜昌","res2_4m_":168,"pinyin":"Yichang"},"geometry":{"type":"Point","coordinates":[111.285270690918,30.7039527893066]},"type":"Feature","id":"points.168"},{"properties":{"name":"襄樊","res2_4m_":169,"pinyin":"Xiangfan"},"geometry":{"type":"Point","coordinates":[112.14111328125,32.0453987121582]},"type":"Feature","id":"points.169"},{"properties":{"name":"鄂州","res2_4m_":170,"pinyin":"Ezhou"},"geometry":{"type":"Point","coordinates":[114.881187438965,30.4027671813965]},"type":"Feature","id":"points.170"},{"properties":{"name":"荆门","res2_4m_":171,"pinyin":"Jingmen"},"geometry":{"type":"Point","coordinates":[112.200210571289,31.030216217041]},"type":"Feature","id":"points.171"},{"properties":{"name":"黄州","res2_4m_":172,"pinyin":"Huangzhou"},"geometry":{"type":"Point","coordinates":[114.864929199219,30.4490184783936]},"type":"Feature","id":"points.172"},{"properties":{"name":"孝感","res2_4m_":173,"pinyin":"Xiaogan"},"geometry":{"type":"Point","coordinates":[113.911331176758,30.9284553527832]},"type":"Feature","id":"points.173"},{"properties":{"name":"咸宁","res2_4m_":174,"pinyin":"Xianning"},"geometry":{"type":"Point","coordinates":[114.268737792969,29.8943271636963]},"type":"Feature","id":"points.174"},{"properties":{"name":"江陵","res2_4m_":175,"pinyin":"Jiangling"},"geometry":{"type":"Point","coordinates":[112.190963745117,30.3528118133545]},"type":"Feature","id":"points.175"},{"properties":{"name":"恩施","res2_4m_":176,"pinyin":"Enshi"},"geometry":{"type":"Point","coordinates":[109.476623535156,30.2721748352051]},"type":"Feature","id":"points.176"},{"properties":{"name":"衡阳","res2_4m_":177,"pinyin":"Hengyang"},"geometry":{"type":"Point","coordinates":[112.59935760498,26.9005546569824]},"type":"Feature","id":"points.177"},{"properties":{"name":"邵阳","res2_4m_":178,"pinyin":"Shaoyang"},"geometry":{"type":"Point","coordinates":[111.477378845215,27.2502365112305]},"type":"Feature","id":"points.178"},{"properties":{"name":"郴州","res2_4m_":179,"pinyin":"Chenzhou"},"geometry":{"type":"Point","coordinates":[113.028648376465,25.8022918701172]},"type":"Feature","id":"points.179"},{"properties":{"name":"永州","res2_4m_":180,"pinyin":"Yongzhou"},"geometry":{"type":"Point","coordinates":[111.612197875977,26.2112998962402]},"type":"Feature","id":"points.180"},{"properties":{"name":"大庸","res2_4m_":181,"pinyin":"Dayong"},"geometry":{"type":"Point","coordinates":[110.481483459473,29.1318798065186]},"type":"Feature","id":"points.181"},{"properties":{"name":"怀化","res2_4m_":182,"pinyin":"Huaihua"},"geometry":{"type":"Point","coordinates":[109.954231262207,27.5474071502686]},"type":"Feature","id":"points.182"},{"properties":{"name":"吉首","res2_4m_":183,"pinyin":"Jishou"},"geometry":{"type":"Point","coordinates":[109.733840942383,28.30810546875]},"type":"Feature","id":"points.183"},{"properties":{"name":"长沙","res2_4m_":184,"pinyin":"Changsha"},"geometry":{"type":"Point","coordinates":[112.981269836426,28.2008247375488]},"type":"Feature","id":"points.184"},{"properties":{"name":"株洲","res2_4m_":185,"pinyin":"Zhuzhou"},"geometry":{"type":"Point","coordinates":[113.152061462402,27.8542232513428]},"type":"Feature","id":"points.185"},{"properties":{"name":"湘潭","res2_4m_":186,"pinyin":"Xiangtan"},"geometry":{"type":"Point","coordinates":[112.915023803711,27.8733501434326]},"type":"Feature","id":"points.186"},{"properties":{"name":"岳阳","res2_4m_":187,"pinyin":"Yueyang"},"geometry":{"type":"Point","coordinates":[113.098068237305,29.3746185302734]},"type":"Feature","id":"points.187"},{"properties":{"name":"常德","res2_4m_":188,"pinyin":"Changde"},"geometry":{"type":"Point","coordinates":[111.687629699707,29.0382099151611]},"type":"Feature","id":"points.188"},{"properties":{"name":"益阳","res2_4m_":189,"pinyin":"Yiyang"},"geometry":{"type":"Point","coordinates":[112.33406829834,28.6019706726074]},"type":"Feature","id":"points.189"},{"properties":{"name":"娄底","res2_4m_":190,"pinyin":"Loudi"},"geometry":{"type":"Point","coordinates":[111.993896484375,27.7413349151611]},"type":"Feature","id":"points.190"},{"properties":{"name":"汕尾","res2_4m_":191,"pinyin":"Shanwei"},"geometry":{"type":"Point","coordinates":[115.364013671875,22.7786865234375]},"type":"Feature","id":"points.191"},{"properties":{"name":"惠州","res2_4m_":192,"pinyin":"Huizhou"},"geometry":{"type":"Point","coordinates":[114.392402648926,23.0879573822021]},"type":"Feature","id":"points.192"},{"properties":{"name":"深圳","res2_4m_":193,"pinyin":"Shenzhen"},"geometry":{"type":"Point","coordinates":[114.11067199707,22.556396484375]},"type":"Feature","id":"points.193"},{"properties":{"name":"河源","res2_4m_":194,"pinyin":"Heyuan"},"geometry":{"type":"Point","coordinates":[114.693817138672,23.7348403930664]},"type":"Feature","id":"points.194"},{"properties":{"name":"广州","res2_4m_":195,"pinyin":"Guangzhou"},"geometry":{"type":"Point","coordinates":[113.261428833008,23.1189117431641]},"type":"Feature","id":"points.195"},{"properties":{"name":"佛山","res2_4m_":196,"pinyin":"Foshan"},"geometry":{"type":"Point","coordinates":[113.114517211914,23.0348777770996]},"type":"Feature","id":"points.196"},{"properties":{"name":"清远","res2_4m_":197,"pinyin":"Qingyuan"},"geometry":{"type":"Point","coordinates":[113.021263122559,23.719596862793]},"type":"Feature","id":"points.197"},{"properties":{"name":"东莞","res2_4m_":198,"pinyin":"Dongwan"},"geometry":{"type":"Point","coordinates":[113.74877166748,23.0485363006592]},"type":"Feature","id":"points.198"},{"properties":{"name":"珠海","res2_4m_":199,"pinyin":"Zhuhai"},"geometry":{"type":"Point","coordinates":[113.568260192871,22.2725887298584]},"type":"Feature","id":"points.199"},{"properties":{"name":"江门","res2_4m_":200,"pinyin":"Jiangmen"},"geometry":{"type":"Point","coordinates":[113.084747314453,22.5911903381348]},"type":"Feature","id":"points.200"},{"properties":{"name":"肇庆","res2_4m_":201,"pinyin":"Zhaoqing"},"geometry":{"type":"Point","coordinates":[112.45140838623,23.05788230896]},"type":"Feature","id":"points.201"},{"properties":{"name":"中山","res2_4m_":202,"pinyin":"Zhongshan"},"geometry":{"type":"Point","coordinates":[113.371452331543,22.5268535614014]},"type":"Feature","id":"points.202"},{"properties":{"name":"湛江","res2_4m_":203,"pinyin":"Zhanjiang"},"geometry":{"type":"Point","coordinates":[110.399223327637,21.1949977874756]},"type":"Feature","id":"points.203"},{"properties":{"name":"茂名","res2_4m_":204,"pinyin":"Maoming"},"geometry":{"type":"Point","coordinates":[110.888847351074,21.6707172393799]},"type":"Feature","id":"points.204"},{"properties":{"name":"韶关","res2_4m_":205,"pinyin":"Shaoguan"},"geometry":{"type":"Point","coordinates":[113.605392456055,24.8087768554688]},"type":"Feature","id":"points.205"},{"properties":{"name":"汕头","res2_4m_":206,"pinyin":"Shantou"},"geometry":{"type":"Point","coordinates":[116.683799743652,23.3626918792725]},"type":"Feature","id":"points.206"},{"properties":{"name":"梅州","res2_4m_":207,"pinyin":"Meizhou"},"geometry":{"type":"Point","coordinates":[116.107940673828,24.3145008087158]},"type":"Feature","id":"points.207"},{"properties":{"name":"阳江","res2_4m_":208,"pinyin":"Yangjiang"},"geometry":{"type":"Point","coordinates":[111.957893371582,21.8452339172363]},"type":"Feature","id":"points.208"},{"properties":{"name":"梧州","res2_4m_":209,"pinyin":"Wuzhou"},"geometry":{"type":"Point","coordinates":[111.305946350098,23.4866199493408]},"type":"Feature","id":"points.209"},{"properties":{"name":"玉林","res2_4m_":210,"pinyin":"Yulin"},"geometry":{"type":"Point","coordinates":[110.141471862793,22.6318969726563]},"type":"Feature","id":"points.210"},{"properties":{"name":"桂林","res2_4m_":211,"pinyin":"Guilin"},"geometry":{"type":"Point","coordinates":[110.286682128906,25.2818832397461]},"type":"Feature","id":"points.211"},{"properties":{"name":"南宁","res2_4m_":212,"pinyin":"Nanning"},"geometry":{"type":"Point","coordinates":[108.311767578125,22.8065433502197]},"type":"Feature","id":"points.212"},{"properties":{"name":"百色","res2_4m_":213,"pinyin":"Bose"},"geometry":{"type":"Point","coordinates":[106.612106323242,23.9015827178955]},"type":"Feature","id":"points.213"},{"properties":{"name":"河池","res2_4m_":214,"pinyin":"Hechi"},"geometry":{"type":"Point","coordinates":[108.051628112793,24.696891784668]},"type":"Feature","id":"points.214"},{"properties":{"name":"钦州","res2_4m_":215,"pinyin":"Qinzhou"},"geometry":{"type":"Point","coordinates":[108.614700317383,21.9498691558838]},"type":"Feature","id":"points.215"},{"properties":{"name":"柳州","res2_4m_":216,"pinyin":"Liuzhou"},"geometry":{"type":"Point","coordinates":[109.402809143066,24.3104057312012]},"type":"Feature","id":"points.216"},{"properties":{"name":"北海","res2_4m_":217,"pinyin":"Beihai"},"geometry":{"type":"Point","coordinates":[109.119171142578,21.4797973632813]},"type":"Feature","id":"points.217"},{"properties":{"name":"三亚","res2_4m_":218,"pinyin":"Sanya"},"geometry":{"type":"Point","coordinates":[109.507820129395,18.2340431213379]},"type":"Feature","id":"points.218"},{"properties":{"name":"海口","res2_4m_":219,"pinyin":"Haikou"},"geometry":{"type":"Point","coordinates":[110.34651184082,20.0317935943604]},"type":"Feature","id":"points.219"},{"properties":{"name":"康定","res2_4m_":220,"pinyin":"Kangding(Dardo)"},"geometry":{"type":"Point","coordinates":[101.957626342773,30.0527324676514]},"type":"Feature","id":"points.220"},{"properties":{"name":"雅安","res2_4m_":221,"pinyin":"Ya'an"},"geometry":{"type":"Point","coordinates":[102.982696533203,29.9822940826416]},"type":"Feature","id":"points.221"},{"properties":{"name":"马尔康","res2_4m_":222,"pinyin":"Barkam"},"geometry":{"type":"Point","coordinates":[102.232460021973,31.9083461761475]},"type":"Feature","id":"points.222"},{"properties":{"name":"成都","res2_4m_":223,"pinyin":"Chengdu"},"geometry":{"type":"Point","coordinates":[104.081756591797,30.6610565185547]},"type":"Feature","id":"points.223"},{"properties":{"name":"自贡","res2_4m_":224,"pinyin":"Zigong"},"geometry":{"type":"Point","coordinates":[104.776351928711,29.3677215576172]},"type":"Feature","id":"points.224"},{"properties":{"name":"重庆","res2_4m_":225,"pinyin":"Chongqing"},"geometry":{"type":"Point","coordinates":[106.51033782959,29.5581760406494]},"type":"Feature","id":"points.225"},{"properties":{"name":"南充","res2_4m_":226,"pinyin":"Nanchong"},"geometry":{"type":"Point","coordinates":[106.08162689209,30.7958221435547]},"type":"Feature","id":"points.226"},{"properties":{"name":"泸州","res2_4m_":227,"pinyin":"Luzhou"},"geometry":{"type":"Point","coordinates":[105.437843322754,28.8819942474365]},"type":"Feature","id":"points.227"},{"properties":{"name":"德阳","res2_4m_":228,"pinyin":"Deyang"},"geometry":{"type":"Point","coordinates":[104.391548156738,31.1304454803467]},"type":"Feature","id":"points.228"},{"properties":{"name":"绵阳","res2_4m_":229,"pinyin":"Mianyang"},"geometry":{"type":"Point","coordinates":[104.748550415039,31.4563484191895]},"type":"Feature","id":"points.229"},{"properties":{"name":"遂宁","res2_4m_":230,"pinyin":"Suining"},"geometry":{"type":"Point","coordinates":[105.569709777832,30.5033931732178]},"type":"Feature","id":"points.230"},{"properties":{"name":"内江","res2_4m_":231,"pinyin":"Neijiang"},"geometry":{"type":"Point","coordinates":[105.053436279297,29.5775680541992]},"type":"Feature","id":"points.231"},{"properties":{"name":"乐山","res2_4m_":232,"pinyin":"Leshan"},"geometry":{"type":"Point","coordinates":[103.751403808594,29.5682239532471]},"type":"Feature","id":"points.232"},{"properties":{"name":"宜宾","res2_4m_":233,"pinyin":"Yibin"},"geometry":{"type":"Point","coordinates":[104.61686706543,28.7702560424805]},"type":"Feature","id":"points.233"},{"properties":{"name":"广元","res2_4m_":234,"pinyin":"Guangyuan"},"geometry":{"type":"Point","coordinates":[105.831703186035,32.4439697265625]},"type":"Feature","id":"points.234"},{"properties":{"name":"达县","res2_4m_":235,"pinyin":"Daxian"},"geometry":{"type":"Point","coordinates":[107.500343322754,31.2246971130371]},"type":"Feature","id":"points.235"},{"properties":{"name":"西昌","res2_4m_":236,"pinyin":"Xichang"},"geometry":{"type":"Point","coordinates":[102.265266418457,27.8972454071045]},"type":"Feature","id":"points.236"},{"properties":{"name":"攀枝花","res2_4m_":237,"pinyin":"Panzhihua"},"geometry":{"type":"Point","coordinates":[101.698417663574,26.5547981262207]},"type":"Feature","id":"points.237"},{"properties":{"name":"黔江土家族苗族自治县","res2_4m_":238,"pinyin":"Qianjiang Tujiazu Miaozu Zizhixian"},"geometry":{"type":"Point","coordinates":[108.781471252441,29.5271797180176]},"type":"Feature","id":"points.238"},{"properties":{"name":"六盘水","res2_4m_":239,"pinyin":"Lupanshui"},"geometry":{"type":"Point","coordinates":[104.873252868652,26.576774597168]},"type":"Feature","id":"points.239"},{"properties":{"name":"铜仁","res2_4m_":240,"pinyin":"Tongren"},"geometry":{"type":"Point","coordinates":[109.192680358887,27.7221660614014]},"type":"Feature","id":"points.240"},{"properties":{"name":"安顺","res2_4m_":241,"pinyin":"Anshun"},"geometry":{"type":"Point","coordinates":[105.926071166992,26.2442588806152]},"type":"Feature","id":"points.241"},{"properties":{"name":"凯里","res2_4m_":242,"pinyin":"Kaili"},"geometry":{"type":"Point","coordinates":[107.977111816406,26.5888843536377]},"type":"Feature","id":"points.242"},{"properties":{"name":"都匀","res2_4m_":243,"pinyin":"Duyun"},"geometry":{"type":"Point","coordinates":[107.518043518066,26.2633209228516]},"type":"Feature","id":"points.243"},{"properties":{"name":"兴义","res2_4m_":244,"pinyin":"Xingyi"},"geometry":{"type":"Point","coordinates":[104.895896911621,25.0868282318115]},"type":"Feature","id":"points.244"},{"properties":{"name":"毕节","res2_4m_":245,"pinyin":"Bijie"},"geometry":{"type":"Point","coordinates":[105.282417297363,27.3062953948975]},"type":"Feature","id":"points.245"},{"properties":{"name":"贵阳","res2_4m_":246,"pinyin":"Guiyang"},"geometry":{"type":"Point","coordinates":[106.711372375488,26.5768737792969]},"type":"Feature","id":"points.246"},{"properties":{"name":"遵义","res2_4m_":247,"pinyin":"Zunyi"},"geometry":{"type":"Point","coordinates":[106.929397583008,27.6953868865967]},"type":"Feature","id":"points.247"},{"properties":{"name":"昆明","res2_4m_":248,"pinyin":"Kunming"},"geometry":{"type":"Point","coordinates":[102.704566955566,25.0438442230225]},"type":"Feature","id":"points.248"},{"properties":{"name":"东川","res2_4m_":249,"pinyin":"Dongchuan"},"geometry":{"type":"Point","coordinates":[103.181221008301,26.0926647186279]},"type":"Feature","id":"points.249"},{"properties":{"name":"曲靖","res2_4m_":250,"pinyin":"Qujing"},"geometry":{"type":"Point","coordinates":[103.794700622559,25.496166229248]},"type":"Feature","id":"points.250"},{"properties":{"name":"楚雄","res2_4m_":251,"pinyin":"Chuxiong"},"geometry":{"type":"Point","coordinates":[101.543769836426,25.033052444458]},"type":"Feature","id":"points.251"},{"properties":{"name":"玉溪","res2_4m_":252,"pinyin":"Yuxi"},"geometry":{"type":"Point","coordinates":[102.533233642578,24.3549728393555]},"type":"Feature","id":"points.252"},{"properties":{"name":"个旧","res2_4m_":253,"pinyin":"Gejiu"},"geometry":{"type":"Point","coordinates":[103.159202575684,23.3529624938965]},"type":"Feature","id":"points.253"},{"properties":{"name":"文山","res2_4m_":254,"pinyin":"Wenshan"},"geometry":{"type":"Point","coordinates":[104.239120483398,23.3749179840088]},"type":"Feature","id":"points.254"},{"properties":{"name":"思茅","res2_4m_":255,"pinyin":"Simao"},"geometry":{"type":"Point","coordinates":[100.975212097168,22.7954807281494]},"type":"Feature","id":"points.255"},{"properties":{"name":"昭通","res2_4m_":256,"pinyin":"Zhaotong"},"geometry":{"type":"Point","coordinates":[103.71492767334,27.3422794342041]},"type":"Feature","id":"points.256"},{"properties":{"name":"景洪","res2_4m_":257,"pinyin":"Jinghong"},"geometry":{"type":"Point","coordinates":[100.793556213379,22.0126819610596]},"type":"Feature","id":"points.257"},{"properties":{"name":"大理","res2_4m_":258,"pinyin":"Dali"},"geometry":{"type":"Point","coordinates":[100.226356506348,25.5895347595215]},"type":"Feature","id":"points.258"},{"properties":{"name":"保山","res2_4m_":259,"pinyin":"Baoshan"},"geometry":{"type":"Point","coordinates":[99.1687240600586,25.1168022155762]},"type":"Feature","id":"points.259"},{"properties":{"name":"潞西","res2_4m_":260,"pinyin":"Luxi"},"geometry":{"type":"Point","coordinates":[98.5899887084961,24.4424209594727]},"type":"Feature","id":"points.260"},{"properties":{"name":"丽江纳西族自治县","res2_4m_":261,"pinyin":"Lijiang Naxizu Zizhixian"},"geometry":{"type":"Point","coordinates":[100.234252929688,26.8766651153564]},"type":"Feature","id":"points.261"},{"properties":{"name":"泸水","res2_4m_":262,"pinyin":"Lushui"},"geometry":{"type":"Point","coordinates":[98.82373046875,25.9880485534668]},"type":"Feature","id":"points.262"},{"properties":{"name":"中甸","res2_4m_":263,"pinyin":"Zhongdian"},"geometry":{"type":"Point","coordinates":[99.7073974609375,27.8204803466797]},"type":"Feature","id":"points.263"},{"properties":{"name":"临沧","res2_4m_":264,"pinyin":"Lincang"},"geometry":{"type":"Point","coordinates":[100.08780670166,23.8799304962158]},"type":"Feature","id":"points.264"},{"properties":{"name":"拉萨","res2_4m_":265,"pinyin":"Lhasa"},"geometry":{"type":"Point","coordinates":[91.1320495605469,29.6575889587402]},"type":"Feature","id":"points.265"},{"properties":{"name":"昌都","res2_4m_":266,"pinyin":"Qamdo"},"geometry":{"type":"Point","coordinates":[97.1675415039063,31.1421813964844]},"type":"Feature","id":"points.266"},{"properties":{"name":"乃东","res2_4m_":267,"pinyin":"Nêdong"},"geometry":{"type":"Point","coordinates":[91.7765960693359,29.2273807525635]},"type":"Feature","id":"points.267"},{"properties":{"name":"日喀则","res2_4m_":268,"pinyin":"Rikaze"},"geometry":{"type":"Point","coordinates":[88.8792266845703,29.2744216918945]},"type":"Feature","id":"points.268"},{"properties":{"name":"那曲","res2_4m_":269,"pinyin":"Nagqu"},"geometry":{"type":"Point","coordinates":[92.0546035766602,31.4805793762207]},"type":"Feature","id":"points.269"},{"properties":{"name":"噶尔","res2_4m_":270,"pinyin":"Ga'er"},"geometry":{"type":"Point","coordinates":[80.0965576171875,32.5053405761719]},"type":"Feature","id":"points.270"},{"properties":{"name":"林芝","res2_4m_":271,"pinyin":"Nyingchi"},"geometry":{"type":"Point","coordinates":[94.484260559082,29.5840740203857]},"type":"Feature","id":"points.271"},{"properties":{"name":"西安","res2_4m_":272,"pinyin":"Xi'an"},"geometry":{"type":"Point","coordinates":[108.949028015137,34.2616844177246]},"type":"Feature","id":"points.272"},{"properties":{"name":"铜川","res2_4m_":273,"pinyin":"Tongchuan"},"geometry":{"type":"Point","coordinates":[109.057281494141,35.0754585266113]},"type":"Feature","id":"points.273"},{"properties":{"name":"宝鸡","res2_4m_":274,"pinyin":"Baoji"},"geometry":{"type":"Point","coordinates":[107.138359069824,34.3822860717773]},"type":"Feature","id":"points.274"},{"properties":{"name":"咸阳","res2_4m_":275,"pinyin":"Xianyang"},"geometry":{"type":"Point","coordinates":[108.71012878418,34.337215423584]},"type":"Feature","id":"points.275"},{"properties":{"name":"渭南","res2_4m_":276,"pinyin":"Weinan"},"geometry":{"type":"Point","coordinates":[109.500839233398,34.5015258789063]},"type":"Feature","id":"points.276"},{"properties":{"name":"汉中","res2_4m_":277,"pinyin":"Hanzhong"},"geometry":{"type":"Point","coordinates":[107.034393310547,33.0781478881836]},"type":"Feature","id":"points.277"},{"properties":{"name":"安康","res2_4m_":278,"pinyin":"Ankang"},"geometry":{"type":"Point","coordinates":[109.025787353516,32.6898651123047]},"type":"Feature","id":"points.278"},{"properties":{"name":"商州","res2_4m_":279,"pinyin":"Shangzhou"},"geometry":{"type":"Point","coordinates":[109.930236816406,33.8719253540039]},"type":"Feature","id":"points.279"},{"properties":{"name":"延安","res2_4m_":280,"pinyin":"Yan'an"},"geometry":{"type":"Point","coordinates":[109.471282958984,36.5938720703125]},"type":"Feature","id":"points.280"},{"properties":{"name":"榆林","res2_4m_":281,"pinyin":"Yulin"},"geometry":{"type":"Point","coordinates":[109.757446289063,38.2972755432129]},"type":"Feature","id":"points.281"},{"properties":{"name":"兰州","res2_4m_":282,"pinyin":"Lanzhou"},"geometry":{"type":"Point","coordinates":[103.750053405762,36.0680389404297]},"type":"Feature","id":"points.282"},{"properties":{"name":"金昌","res2_4m_":283,"pinyin":"Jinchang"},"geometry":{"type":"Point","coordinates":[102.165748596191,38.4951934814453]},"type":"Feature","id":"points.283"},{"properties":{"name":"天水","res2_4m_":284,"pinyin":"Tianshui"},"geometry":{"type":"Point","coordinates":[105.715240478516,34.5842666625977]},"type":"Feature","id":"points.284"},{"properties":{"name":"张掖","res2_4m_":285,"pinyin":"Zhangye"},"geometry":{"type":"Point","coordinates":[100.450286865234,38.93505859375]},"type":"Feature","id":"points.285"},{"properties":{"name":"武威","res2_4m_":286,"pinyin":"Wuwei"},"geometry":{"type":"Point","coordinates":[102.633460998535,37.9269104003906]},"type":"Feature","id":"points.286"},{"properties":{"name":"定西","res2_4m_":287,"pinyin":"Dingxi"},"geometry":{"type":"Point","coordinates":[104.61856842041,35.5752372741699]},"type":"Feature","id":"points.287"},{"properties":{"name":"成县","res2_4m_":288,"pinyin":"Cheng Xian"},"geometry":{"type":"Point","coordinates":[105.729713439941,33.7451667785645]},"type":"Feature","id":"points.288"},{"properties":{"name":"平凉","res2_4m_":289,"pinyin":"Pingliang"},"geometry":{"type":"Point","coordinates":[106.683067321777,35.5355186462402]},"type":"Feature","id":"points.289"},{"properties":{"name":"西峰","res2_4m_":290,"pinyin":"Xifeng"},"geometry":{"type":"Point","coordinates":[107.63623046875,35.7385597229004]},"type":"Feature","id":"points.290"},{"properties":{"name":"临夏","res2_4m_":291,"pinyin":"Linxia"},"geometry":{"type":"Point","coordinates":[103.214080810547,35.6067123413086]},"type":"Feature","id":"points.291"},{"properties":{"name":"夏河","res2_4m_":292,"pinyin":"Xiahe xian"},"geometry":{"type":"Point","coordinates":[102.50617980957,35.2022933959961]},"type":"Feature","id":"points.292"},{"properties":{"name":"嘉峪关","res2_4m_":293,"pinyin":"Jiayuguan"},"geometry":{"type":"Point","coordinates":[98.2747116088867,39.8026542663574]},"type":"Feature","id":"points.293"},{"properties":{"name":"酒泉","res2_4m_":294,"pinyin":"Jiuquan"},"geometry":{"type":"Point","coordinates":[98.511116027832,39.7449684143066]},"type":"Feature","id":"points.294"},{"properties":{"name":"西宁","res2_4m_":295,"pinyin":"Xining"},"geometry":{"type":"Point","coordinates":[101.787452697754,36.609447479248]},"type":"Feature","id":"points.295"},{"properties":{"name":"平安","res2_4m_":296,"pinyin":"Ping'an"},"geometry":{"type":"Point","coordinates":[102.103126525879,36.5020370483398]},"type":"Feature","id":"points.296"},{"properties":{"name":"门源回族自治县","res2_4m_":297,"pinyin":"Menyuan Huizu Zizhixian"},"geometry":{"type":"Point","coordinates":[101.616798400879,37.3747863769531]},"type":"Feature","id":"points.297"},{"properties":{"name":"同仁","res2_4m_":298,"pinyin":"Tongren"},"geometry":{"type":"Point","coordinates":[102.005653381348,35.5106658935547]},"type":"Feature","id":"points.298"},{"properties":{"name":"共和","res2_4m_":299,"pinyin":"Gonghe"},"geometry":{"type":"Point","coordinates":[100.615829467773,36.2821426391602]},"type":"Feature","id":"points.299"},{"properties":{"name":"玛沁","res2_4m_":300,"pinyin":"Maqên"},"geometry":{"type":"Point","coordinates":[100.245941162109,34.4796333312988]},"type":"Feature","id":"points.300"},{"properties":{"name":"玉树","res2_4m_":301,"pinyin":"Yushu"},"geometry":{"type":"Point","coordinates":[97.0173416137695,33.0127143859863]},"type":"Feature","id":"points.301"},{"properties":{"name":"德令哈","res2_4m_":302,"pinyin":"Delhi"},"geometry":{"type":"Point","coordinates":[97.3568801879883,37.3703498840332]},"type":"Feature","id":"points.302"},{"properties":{"name":"银川","res2_4m_":303,"pinyin":"Yinchuan"},"geometry":{"type":"Point","coordinates":[106.271942138672,38.4680099487305]},"type":"Feature","id":"points.303"},{"properties":{"name":"石嘴山","res2_4m_":304,"pinyin":"Shizuishan"},"geometry":{"type":"Point","coordinates":[106.382057189941,39.0242805480957]},"type":"Feature","id":"points.304"},{"properties":{"name":"吴忠","res2_4m_":305,"pinyin":"Wuzhong"},"geometry":{"type":"Point","coordinates":[106.199111938477,37.9854965209961]},"type":"Feature","id":"points.305"},{"properties":{"name":"固原","res2_4m_":306,"pinyin":"Guyuan"},"geometry":{"type":"Point","coordinates":[106.278587341309,36.0132598876953]},"type":"Feature","id":"points.306"},{"properties":{"name":"乌鲁木齐","res2_4m_":307,"pinyin":"Wulumuqi"},"geometry":{"type":"Point","coordinates":[87.6061172485352,43.7909393310547]},"type":"Feature","id":"points.307"},{"properties":{"name":"克拉玛依","res2_4m_":308,"pinyin":"Karamay"},"geometry":{"type":"Point","coordinates":[84.8636093139648,45.5965118408203]},"type":"Feature","id":"points.308"},{"properties":{"name":"吐鲁番","res2_4m_":309,"pinyin":"Turpan"},"geometry":{"type":"Point","coordinates":[89.181510925293,42.9420394897461]},"type":"Feature","id":"points.309"},{"properties":{"name":"哈密","res2_4m_":310,"pinyin":"Hami(Kumul)"},"geometry":{"type":"Point","coordinates":[93.5188064575195,42.8189125061035]},"type":"Feature","id":"points.310"},{"properties":{"name":"昌吉","res2_4m_":311,"pinyin":"Changji"},"geometry":{"type":"Point","coordinates":[87.305305480957,44.015983581543]},"type":"Feature","id":"points.311"},{"properties":{"name":"博乐","res2_4m_":312,"pinyin":"Bole"},"geometry":{"type":"Point","coordinates":[82.0744247436523,44.9035301208496]},"type":"Feature","id":"points.312"},{"properties":{"name":"库尔勒","res2_4m_":313,"pinyin":"Ku'erle"},"geometry":{"type":"Point","coordinates":[86.1347045898438,41.7598838806152]},"type":"Feature","id":"points.313"},{"properties":{"name":"阿克苏","res2_4m_":314,"pinyin":"Aksu"},"geometry":{"type":"Point","coordinates":[80.2605895996094,41.169075012207]},"type":"Feature","id":"points.314"},{"properties":{"name":"伊宁","res2_4m_":317,"pinyin":"Yining"},"geometry":{"type":"Point","coordinates":[81.3186569213867,43.9108810424805]},"type":"Feature","id":"points.317"},{"properties":{"name":"基隆","res2_4m_":318,"pinyin":"Chilong Shih"},"geometry":{"type":"Point","coordinates":[121.73779296875,25.1294574737549]},"type":"Feature","id":"points.318"},{"properties":{"name":"台北","res2_4m_":319,"pinyin":"Taipei Shih"},"geometry":{"type":"Point","coordinates":[121.514282226563,25.0491275787354]},"type":"Feature","id":"points.319"},{"properties":{"name":"台南","res2_4m_":320,"pinyin":"Tainan Hsien"},"geometry":{"type":"Point","coordinates":[120.197418212891,23.0010108947754]},"type":"Feature","id":"points.320"},{"properties":{"name":"高雄","res2_4m_":321,"pinyin":"Kaohsiung Shih"},"geometry":{"type":"Point","coordinates":[120.29768371582,22.6303730010986]},"type":"Feature","id":"points.321"},{"properties":{"name":"台中","res2_4m_":322,"pinyin":"Taichung Hsien"},"geometry":{"type":"Point","coordinates":[120.670341491699,24.1445770263672]},"type":"Feature","id":"points.322"},{"properties":{"name":"辽阳","res2_4m_":323,"pinyin":"Liaoyang"},"geometry":{"type":"Point","coordinates":[123.161743164063,41.26513671875]},"type":"Feature","id":"points.323"},{"properties":{"name":"和田","res2_4m_":324,"pinyin":"Hetian"},"geometry":{"type":"Point","coordinates":[79.9269866943359,37.110782623291]},"type":"Feature","id":"points.324"},{"properties":{"name":"昌都","res2_4m_":325,"pinyin":"Qamdo"},"geometry":{"type":"Point","coordinates":[97.1675415039063,31.1421813964844]},"type":"Feature","id":"points.325"},{"properties":{"name":"那曲","res2_4m_":326,"pinyin":"Nagqu"},"geometry":{"type":"Point","coordinates":[92.0546035766602,31.4805793762207]},"type":"Feature","id":"points.326"},{"properties":{"name":"噶尔","res2_4m_":327,"pinyin":"Ga'er"},"geometry":{"type":"Point","coordinates":[80.0965576171875,32.5053405761719]},"type":"Feature","id":"points.327"},{"properties":{"name":"泽当镇","res2_4m_":328,"pinyin":"Zeetang Zhen"},"geometry":{"type":"Point","coordinates":[91.7805557250977,29.2424144744873]},"type":"Feature","id":"points.328"},{"properties":{"name":"八一镇","res2_4m_":329,"pinyin":"Bayi Zhen"},"geometry":{"type":"Point","coordinates":[94.3591537475586,29.6735439300537]},"type":"Feature","id":"points.329"},{"properties":{"name":"澳门","res2_4m_":330,"pinyin":"Macao"},"geometry":{"type":"Point","coordinates":[113.55005645752,22.2007961273193]},"type":"Feature","id":"points.330"},{"properties":{"name":"香港","res2_4m_":331,"pinyin":null},"geometry":{"type":"Point","coordinates":[114.162219457691,22.2633996579949]},"type":"Feature","id":"points.331"}]}